{
  "saved_at": "2026-04-28T09:04:17.888456+00:00",
  "source": "tle.ivanstanojevic.me",
  "base_url": "https://tle.ivanstanojevic.me/api/tle",
  "search_groups": [
    "ISS",
    "STARLINK",
    "ONEWEB",
    "GPS",
    "GALILEO",
    "BEIDOU",
    "GLONASS",
    "NOAA",
    "GOES",
    "METEOR",
    "IRIDIUM",
    "INTELSAT",
    "SES",
    "HUBBLE",
    "LANDSAT",
    "TERRA",
    "AQUA",
    "SENTINEL",
    "COSMOS",
    "CUBESAT",
    "AMATEUR",
    "WEATHER",
    "COMMUNICATION"
  ],
  "count": 280,
  "errors": [],
  "satellites": [
    {
      "name": "GSAT0213 (GALILEO 17)",
      "norad_id": 41861,
      "line1": "1 41861U 16069C   26116.93335348  .00000042  00000+0  00000+0 0  9990",
      "line2": "2 41861  55.4672 102.5058 0005848 302.6930  57.2437  1.70474535 58647",
      "source_group": "GALILEO",
      "groups": [
        "GALILEO"
      ],
      "raw": {
        "@id": "https://tle.ivanstanojevic.me/api/tle/41861",
        "@type": "Tle",
        "satelliteId": 41861,
        "name": "GSAT0213 (GALILEO 17)",
        "date": "2026-04-26T22:24:01+00:00",
        "line1": "1 41861U 16069C   26116.93335348  .00000042  00000+0  00000+0 0  9990",
        "line2": "2 41861  55.4672 102.5058 0005848 302.6930  57.2437  1.70474535 58647"
      }
    },
    {
      "name": "GSAT0214 (GALILEO 18)",
      "norad_id": 41862,
      "line1": "1 41862U 16069D   26117.07947229  .00000042  00000+0  00000+0 0  9994",
      "line2": "2 41862  55.4657 102.4944 0004907 307.7513  52.1969  1.70474264 58779",
      "source_group": "GALILEO",
      "groups": [
        "GALILEO"
      ],
      "raw": {
        "@id": "https://tle.ivanstanojevic.me/api/tle/41862",
        "@type": "Tle",
        "satelliteId": 41862,
        "name": "GSAT0214 (GALILEO 18)",
        "date": "2026-04-27T01:54:26+00:00",
        "line1": "1 41862U 16069D   26117.07947229  .00000042  00000+0  00000+0 0  9994",
        "line2": "2 41862  55.4657 102.4944 0004907 307.7513  52.1969  1.70474264 58779"
      }
    },
    {
      "name": "GSAT0102 (GALILEO-FM2)",
      "norad_id": 37847,
      "line1": "1 37847U 11060B   26116.45263183 -.00000091  00000+0  00000+0 0  9994",
      "line2": "2 37847  57.0107 343.1653 0004708   9.1421 173.7389  1.70475958 90241",
      "source_group": "GALILEO",
      "groups": [
        "GALILEO"
      ],
      "raw": {
        "@id": "https://tle.ivanstanojevic.me/api/tle/37847",
        "@type": "Tle",
        "satelliteId": 37847,
        "name": "GSAT0102 (GALILEO-FM2)",
        "date": "2026-04-26T10:51:47+00:00",
        "line1": "1 37847U 11060B   26116.45263183 -.00000091  00000+0  00000+0 0  9994",
        "line2": "2 37847  57.0107 343.1653 0004708   9.1421 173.7389  1.70475958 90241"
      }
    },
    {
      "name": "GSAT0215 (GALILEO 19)",
      "norad_id": 43055,
      "line1": "1 43055U 17079A   26113.46347810 -.00000022  00000+0  00000+0 0  9990",
      "line2": "2 43055  55.0907 223.0118 0001428 264.4741  95.5096  1.70474699 52058",
      "source_group": "GALILEO",
      "groups": [
        "GALILEO"
      ],
      "raw": {
        "@id": "https://tle.ivanstanojevic.me/api/tle/43055",
        "@type": "Tle",
        "satelliteId": 43055,
        "name": "GSAT0215 (GALILEO 19)",
        "date": "2026-04-23T11:07:24+00:00",
        "line1": "1 43055U 17079A   26113.46347810 -.00000022  00000+0  00000+0 0  9990",
        "line2": "2 43055  55.0907 223.0118 0001428 264.4741  95.5096  1.70474699 52058"
      }
    },
    {
      "name": "GSAT0216 (GALILEO 20)",
      "norad_id": 43056,
      "line1": "1 43056U 17079B   26114.92781412 -.00000034  00000+0  00000+0 0  9996",
      "line2": "2 43056  55.0895 222.9715 0002775 284.1808  75.7828  1.70474805 52091",
      "source_group": "GALILEO",
      "groups": [
        "GALILEO"
      ],
      "raw": {
        "@id": "https://tle.ivanstanojevic.me/api/tle/43056",
        "@type": "Tle",
        "satelliteId": 43056,
        "name": "GSAT0216 (GALILEO 20)",
        "date": "2026-04-24T22:16:03+00:00",
        "line1": "1 43056U 17079B   26114.92781412 -.00000034  00000+0  00000+0 0  9996",
        "line2": "2 43056  55.0895 222.9715 0002775 284.1808  75.7828  1.70474805 52091"
      }
    },
    {
      "name": "GALILEO104 [GAL]",
      "norad_id": 38858,
      "line1": "1 38858C 12055B   24170.01020833 -.00000000  00000-0  00000-0 0  1708",
      "line2": "2 38858  55.4156 121.7581 0001481 313.3657 182.5612  1.64592169    16",
      "source_group": "GALILEO",
      "groups": [
        "GALILEO"
      ],
      "raw": {
        "@id": "https://tle.ivanstanojevic.me/api/tle/38858",
        "@type": "Tle",
        "satelliteId": 38858,
        "name": "GALILEO104 [GAL]",
        "date": "2024-06-18T00:14:42+00:00",
        "line1": "1 38858C 12055B   24170.01020833 -.00000000  00000-0  00000-0 0  1708",
        "line2": "2 38858  55.4156 121.7581 0001481 313.3657 182.5612  1.64592169    16"
      }
    },
    {
      "name": "GSAT0217 (GALILEO 21)",
      "norad_id": 43057,
      "line1": "1 43057U 17079C   26116.32174354 -.00000039  00000+0  00000+0 0  9999",
      "line2": "2 43057  55.0878 222.9311 0002278 305.0014  54.9682  1.70474773 52108",
      "source_group": "GALILEO",
      "groups": [
        "GALILEO"
      ],
      "raw": {
        "@id": "https://tle.ivanstanojevic.me/api/tle/43057",
        "@type": "Tle",
        "satelliteId": 43057,
        "name": "GSAT0217 (GALILEO 21)",
        "date": "2026-04-26T07:43:18+00:00",
        "line1": "1 43057U 17079C   26116.32174354 -.00000039  00000+0  00000+0 0  9999",
        "line2": "2 43057  55.0878 222.9311 0002278 305.0014  54.9682  1.70474773 52108"
      }
    },
    {
      "name": "GSAT0218 (GALILEO 22)",
      "norad_id": 43058,
      "line1": "1 43058U 17079D   26115.95522277 -.00000039  00000+0  00000+0 0  9999",
      "line2": "2 43058  55.0879 222.9388 0003183 277.2874  82.6679  1.70474761 52127",
      "source_group": "GALILEO",
      "groups": [
        "GALILEO"
      ],
      "raw": {
        "@id": "https://tle.ivanstanojevic.me/api/tle/43058",
        "@type": "Tle",
        "satelliteId": 43058,
        "name": "GSAT0218 (GALILEO 22)",
        "date": "2026-04-25T22:55:31+00:00",
        "line1": "1 43058U 17079D   26115.95522277 -.00000039  00000+0  00000+0 0  9999",
        "line2": "2 43058  55.0879 222.9388 0003183 277.2874  82.6679  1.70474761 52127"
      }
    },
    {
      "name": "GSAT0202 (GALILEO 6)",
      "norad_id": 40129,
      "line1": "1 40129U 14050B   26116.92999610 -.00000073  00000+0  00000+0 0  9996",
      "line2": "2 40129  48.9494 274.6194 1667550 178.1198 182.5912  1.85520667 79536",
      "source_group": "GALILEO",
      "groups": [
        "GALILEO"
      ],
      "raw": {
        "@id": "https://tle.ivanstanojevic.me/api/tle/40129",
        "@type": "Tle",
        "satelliteId": 40129,
        "name": "GSAT0202 (GALILEO 6)",
        "date": "2026-04-26T22:19:11+00:00",
        "line1": "1 40129U 14050B   26116.92999610 -.00000073  00000+0  00000+0 0  9996",
        "line2": "2 40129  48.9494 274.6194 1667550 178.1198 182.5912  1.85520667 79536"
      }
    },
    {
      "name": "GSAT0203 (GALILEO 7)",
      "norad_id": 40544,
      "line1": "1 40544U 15017A   26117.18011044 -.00000091  00000+0  00000+0 0  9996",
      "line2": "2 40544  56.8028 342.9865 0003398 299.9003  60.1078  1.70475940 68339",
      "source_group": "GALILEO",
      "groups": [
        "GALILEO"
      ],
      "raw": {
        "@id": "https://tle.ivanstanojevic.me/api/tle/40544",
        "@type": "Tle",
        "satelliteId": 40544,
        "name": "GSAT0203 (GALILEO 7)",
        "date": "2026-04-27T04:19:21+00:00",
        "line1": "1 40544U 15017A   26117.18011044 -.00000091  00000+0  00000+0 0  9996",
        "line2": "2 40544  56.8028 342.9865 0003398 299.9003  60.1078  1.70475940 68339"
      }
    },
    {
      "name": "BEIDOU-3 M17",
      "norad_id": 43706,
      "line1": "1 43706U 18093A   26117.36641638  .00000013  00000+0  00000+0 0  9997",
      "line2": "2 43706  54.1668 184.0206 0009054 291.5790 113.2072  1.86228452 50597",
      "source_group": "BEIDOU",
      "groups": [
        "BEIDOU"
      ],
      "raw": {
        "@id": "https://tle.ivanstanojevic.me/api/tle/43706",
        "@type": "Tle",
        "satelliteId": 43706,
        "name": "BEIDOU-3 M17",
        "date": "2026-04-27T08:47:38+00:00",
        "line1": "1 43706U 18093A   26117.36641638  .00000013  00000+0  00000+0 0  9997",
        "line2": "2 43706  54.1668 184.0206 0009054 291.5790 113.2072  1.86228452 50597"
      }
    },
    {
      "name": "BEIDOU-3 IGSO-3",
      "norad_id": 44709,
      "line1": "1 44709U 19073A   26116.86055463 -.00000201  00000+0  00000+0 0  9999",
      "line2": "2 44709  54.8910 281.4498 0042200 188.8144 171.0242  1.00252491 23940",
      "source_group": "BEIDOU",
      "groups": [
        "BEIDOU"
      ],
      "raw": {
        "@id": "https://tle.ivanstanojevic.me/api/tle/44709",
        "@type": "Tle",
        "satelliteId": 44709,
        "name": "BEIDOU-3 IGSO-3",
        "date": "2026-04-26T20:39:11+00:00",
        "line1": "1 44709U 19073A   26116.86055463 -.00000201  00000+0  00000+0 0  9999",
        "line2": "2 44709  54.8910 281.4498 0042200 188.8144 171.0242  1.00252491 23940"
      }
    }
  ]
}